<?xml version="1.0" encoding="UTF-8"?>
<ndm xmlns:xsi="http://www.w3.org/2001/XMLSchema-instance" xsi:noNamespaceSchemaLocation="https://sanaregistry.org/r/ndmxml_unqualified/ndmxml-2.0.0-master-2.0.xsd">
<omm id="CCSDS_OMM_VERS" version="2.0">
<header><CREATION_DATE/><ORIGINATOR/></header><body><segment><metadata><OBJECT_NAME>QIANFAN-73</OBJECT_NAME><OBJECT_ID>2025-046A</OBJECT_ID><CENTER_NAME>EARTH</CENTER_NAME><REF_FRAME>TEME</REF_FRAME><TIME_SYSTEM>UTC</TIME_SYSTEM><MEAN_ELEMENT_THEORY>SGP4</MEAN_ELEMENT_THEORY></metadata><data><meanElements><EPOCH>2025-10-17T04:01:54.266016</EPOCH><MEAN_MOTION>13.50970175</MEAN_MOTION><ECCENTRICITY>.0012919</ECCENTRICITY><INCLINATION>88.9790</INCLINATION><RA_OF_ASC_NODE>325.8805</RA_OF_ASC_NODE><ARG_OF_PERICENTER>289.5404</ARG_OF_PERICENTER><MEAN_ANOMALY>70.4351</MEAN_ANOMALY></meanElements><tleParameters><EPHEMERIS_TYPE>0</EPHEMERIS_TYPE><CLASSIFICATION_TYPE>U</CLASSIFICATION_TYPE><NORAD_CAT_ID>63159</NORAD_CAT_ID><ELEMENT_SET_NO>999</ELEMENT_SET_NO><REV_AT_EPOCH>3977</REV_AT_EPOCH><BSTAR>.21471E-3</BSTAR><MEAN_MOTION_DOT>.15E-5</MEAN_MOTION_DOT><MEAN_MOTION_DDOT>0</MEAN_MOTION_DDOT></tleParameters></data></segment></body></omm>
<omm id="CCSDS_OMM_VERS" version="2.0">
<header><CREATION_DATE/><ORIGINATOR/></header><body><segment><metadata><OBJECT_NAME>QIANFAN-74</OBJECT_NAME><OBJECT_ID>2025-046B</OBJECT_ID><CENTER_NAME>EARTH</CENTER_NAME><REF_FRAME>TEME</REF_FRAME><TIME_SYSTEM>UTC</TIME_SYSTEM><MEAN_ELEMENT_THEORY>SGP4</MEAN_ELEMENT_THEORY></metadata><data><meanElements><EPOCH>2025-10-17T03:38:11.740992</EPOCH><MEAN_MOTION>13.50972095</MEAN_MOTION><ECCENTRICITY>.000217</ECCENTRICITY><INCLINATION>88.9790</INCLINATION><RA_OF_ASC_NODE>325.7706</RA_OF_ASC_NODE><ARG_OF_PERICENTER>98.9097</ARG_OF_PERICENTER><MEAN_ANOMALY>261.2299</MEAN_ANOMALY></meanElements><tleParameters><EPHEMERIS_TYPE>0</EPHEMERIS_TYPE><CLASSIFICATION_TYPE>U</CLASSIFICATION_TYPE><NORAD_CAT_ID>63160</NORAD_CAT_ID><ELEMENT_SET_NO>999</ELEMENT_SET_NO><REV_AT_EPOCH>3983</REV_AT_EPOCH><BSTAR>.21301E-3</BSTAR><MEAN_MOTION_DOT>.15E-5</MEAN_MOTION_DOT><MEAN_MOTION_DDOT>0</MEAN_MOTION_DDOT></tleParameters></data></segment></body></omm>
<omm id="CCSDS_OMM_VERS" version="2.0">
<header><CREATION_DATE/><ORIGINATOR/></header><body><segment><metadata><OBJECT_NAME>QIANFAN-75</OBJECT_NAME><OBJECT_ID>2025-046C</OBJECT_ID><CENTER_NAME>EARTH</CENTER_NAME><REF_FRAME>TEME</REF_FRAME><TIME_SYSTEM>UTC</TIME_SYSTEM><MEAN_ELEMENT_THEORY>SGP4</MEAN_ELEMENT_THEORY></metadata><data><meanElements><EPOCH>2025-10-17T03:20:18.736800</EPOCH><MEAN_MOTION>13.50979865</MEAN_MOTION><ECCENTRICITY>.0014047</ECCENTRICITY><INCLINATION>88.9791</INCLINATION><RA_OF_ASC_NODE>326.0046</RA_OF_ASC_NODE><ARG_OF_PERICENTER>292.9025</ARG_OF_PERICENTER><MEAN_ANOMALY>67.0643</MEAN_ANOMALY></meanElements><tleParameters><EPHEMERIS_TYPE>0</EPHEMERIS_TYPE><CLASSIFICATION_TYPE>U</CLASSIFICATION_TYPE><NORAD_CAT_ID>63161</NORAD_CAT_ID><ELEMENT_SET_NO>999</ELEMENT_SET_NO><REV_AT_EPOCH>3970</REV_AT_EPOCH><BSTAR>.25975E-3</BSTAR><MEAN_MOTION_DOT>.18E-5</MEAN_MOTION_DOT><MEAN_MOTION_DDOT>0</MEAN_MOTION_DDOT></tleParameters></data></segment></body></omm>
<omm id="CCSDS_OMM_VERS" version="2.0">
<header><CREATION_DATE/><ORIGINATOR/></header><body><segment><metadata><OBJECT_NAME>QIANFAN-76</OBJECT_NAME><OBJECT_ID>2025-046D</OBJECT_ID><CENTER_NAME>EARTH</CENTER_NAME><REF_FRAME>TEME</REF_FRAME><TIME_SYSTEM>UTC</TIME_SYSTEM><MEAN_ELEMENT_THEORY>SGP4</MEAN_ELEMENT_THEORY></metadata><data><meanElements><EPOCH>2025-10-17T03:14:30.238944</EPOCH><MEAN_MOTION>13.50972105</MEAN_MOTION><ECCENTRICITY>.0011606</ECCENTRICITY><INCLINATION>88.9792</INCLINATION><RA_OF_ASC_NODE>325.9860</RA_OF_ASC_NODE><ARG_OF_PERICENTER>294.1066</ARG_OF_PERICENTER><MEAN_ANOMALY>65.8871</MEAN_ANOMALY></meanElements><tleParameters><EPHEMERIS_TYPE>0</EPHEMERIS_TYPE><CLASSIFICATION_TYPE>U</CLASSIFICATION_TYPE><NORAD_CAT_ID>63162</NORAD_CAT_ID><ELEMENT_SET_NO>999</ELEMENT_SET_NO><REV_AT_EPOCH>3971</REV_AT_EPOCH><BSTAR>.97328E-4</BSTAR><MEAN_MOTION_DOT>.75E-6</MEAN_MOTION_DOT><MEAN_MOTION_DDOT>0</MEAN_MOTION_DDOT></tleParameters></data></segment></body></omm>
<omm id="CCSDS_OMM_VERS" version="2.0">
<header><CREATION_DATE/><ORIGINATOR/></header><body><segment><metadata><OBJECT_NAME>QIANFAN-77</OBJECT_NAME><OBJECT_ID>2025-046E</OBJECT_ID><CENTER_NAME>EARTH</CENTER_NAME><REF_FRAME>TEME</REF_FRAME><TIME_SYSTEM>UTC</TIME_SYSTEM><MEAN_ELEMENT_THEORY>SGP4</MEAN_ELEMENT_THEORY></metadata><data><meanElements><EPOCH>2025-10-17T03:14:36.306816</EPOCH><MEAN_MOTION>13.96072150</MEAN_MOTION><ECCENTRICITY>.001261</ECCENTRICITY><INCLINATION>88.9787</INCLINATION><RA_OF_ASC_NODE>324.4578</RA_OF_ASC_NODE><ARG_OF_PERICENTER>254.3154</ARG_OF_PERICENTER><MEAN_ANOMALY>105.6632</MEAN_ANOMALY></meanElements><tleParameters><EPHEMERIS_TYPE>0</EPHEMERIS_TYPE><CLASSIFICATION_TYPE>U</CLASSIFICATION_TYPE><NORAD_CAT_ID>63163</NORAD_CAT_ID><ELEMENT_SET_NO>999</ELEMENT_SET_NO><REV_AT_EPOCH>4055</REV_AT_EPOCH><BSTAR>.24305E-3</BSTAR><MEAN_MOTION_DOT>.347E-5</MEAN_MOTION_DOT><MEAN_MOTION_DDOT>0</MEAN_MOTION_DDOT></tleParameters></data></segment></body></omm>
<omm id="CCSDS_OMM_VERS" version="2.0">
<header><CREATION_DATE/><ORIGINATOR/></header><body><segment><metadata><OBJECT_NAME>QIANFAN-78</OBJECT_NAME><OBJECT_ID>2025-046F</OBJECT_ID><CENTER_NAME>EARTH</CENTER_NAME><REF_FRAME>TEME</REF_FRAME><TIME_SYSTEM>UTC</TIME_SYSTEM><MEAN_ELEMENT_THEORY>SGP4</MEAN_ELEMENT_THEORY></metadata><data><meanElements><EPOCH>2025-10-17T04:13:47.524800</EPOCH><MEAN_MOTION>13.50972554</MEAN_MOTION><ECCENTRICITY>.0013022</ECCENTRICITY><INCLINATION>88.9791</INCLINATION><RA_OF_ASC_NODE>325.8462</RA_OF_ASC_NODE><ARG_OF_PERICENTER>296.2920</ARG_OF_PERICENTER><MEAN_ANOMALY>63.6893</MEAN_ANOMALY></meanElements><tleParameters><EPHEMERIS_TYPE>0</EPHEMERIS_TYPE><CLASSIFICATION_TYPE>U</CLASSIFICATION_TYPE><NORAD_CAT_ID>63164</NORAD_CAT_ID><ELEMENT_SET_NO>999</ELEMENT_SET_NO><REV_AT_EPOCH>3979</REV_AT_EPOCH><BSTAR>.21819E-3</BSTAR><MEAN_MOTION_DOT>.153E-5</MEAN_MOTION_DOT><MEAN_MOTION_DDOT>0</MEAN_MOTION_DDOT></tleParameters></data></segment></body></omm>
<omm id="CCSDS_OMM_VERS" version="2.0">
<header><CREATION_DATE/><ORIGINATOR/></header><body><segment><metadata><OBJECT_NAME>QIANFAN-79</OBJECT_NAME><OBJECT_ID>2025-046G</OBJECT_ID><CENTER_NAME>EARTH</CENTER_NAME><REF_FRAME>TEME</REF_FRAME><TIME_SYSTEM>UTC</TIME_SYSTEM><MEAN_ELEMENT_THEORY>SGP4</MEAN_ELEMENT_THEORY></metadata><data><meanElements><EPOCH>2025-10-17T04:55:05.577024</EPOCH><MEAN_MOTION>13.50971737</MEAN_MOTION><ECCENTRICITY>.0012697</ECCENTRICITY><INCLINATION>88.9794</INCLINATION><RA_OF_ASC_NODE>325.9487</RA_OF_ASC_NODE><ARG_OF_PERICENTER>294.2531</ARG_OF_PERICENTER><MEAN_ANOMALY>65.7293</MEAN_ANOMALY></meanElements><tleParameters><EPHEMERIS_TYPE>0</EPHEMERIS_TYPE><CLASSIFICATION_TYPE>U</CLASSIFICATION_TYPE><NORAD_CAT_ID>63165</NORAD_CAT_ID><ELEMENT_SET_NO>999</ELEMENT_SET_NO><REV_AT_EPOCH>3974</REV_AT_EPOCH><BSTAR>.23653E-3</BSTAR><MEAN_MOTION_DOT>.165E-5</MEAN_MOTION_DOT><MEAN_MOTION_DDOT>0</MEAN_MOTION_DDOT></tleParameters></data></segment></body></omm>
<omm id="CCSDS_OMM_VERS" version="2.0">
<header><CREATION_DATE/><ORIGINATOR/></header><body><segment><metadata><OBJECT_NAME>QIANFAN-80</OBJECT_NAME><OBJECT_ID>2025-046H</OBJECT_ID><CENTER_NAME>EARTH</CENTER_NAME><REF_FRAME>TEME</REF_FRAME><TIME_SYSTEM>UTC</TIME_SYSTEM><MEAN_ELEMENT_THEORY>SGP4</MEAN_ELEMENT_THEORY></metadata><data><meanElements><EPOCH>2025-10-17T03:32:18.223296</EPOCH><MEAN_MOTION>13.50972508</MEAN_MOTION><ECCENTRICITY>.0011719</ECCENTRICITY><INCLINATION>88.9792</INCLINATION><RA_OF_ASC_NODE>325.6629</RA_OF_ASC_NODE><ARG_OF_PERICENTER>299.8609</ARG_OF_PERICENTER><MEAN_ANOMALY>60.1377</MEAN_ANOMALY></meanElements><tleParameters><EPHEMERIS_TYPE>0</EPHEMERIS_TYPE><CLASSIFICATION_TYPE>U</CLASSIFICATION_TYPE><NORAD_CAT_ID>63166</NORAD_CAT_ID><ELEMENT_SET_NO>999</ELEMENT_SET_NO><REV_AT_EPOCH>3989</REV_AT_EPOCH><BSTAR>.25729E-3</BSTAR><MEAN_MOTION_DOT>.178E-5</MEAN_MOTION_DOT><MEAN_MOTION_DDOT>0</MEAN_MOTION_DDOT></tleParameters></data></segment></body></omm>

</ndm>
