QIANFAN-73              
1 63159U 25046A   25290.16798919  .00000150  00000+0  21471-3 0  9992
2 63159  88.9790 325.8805 0012919 289.5404  70.4351 13.50970175 39776
QIANFAN-74              
1 63160U 25046B   25290.15152478  .00000150  00000+0  21301-3 0  9999
2 63160  88.9790 325.7706 0002170  98.9097 261.2299 13.50972095 39836
QIANFAN-75              
1 63161U 25046C   25290.13910575  .00000180  00000+0  25975-3 0  9992
2 63161  88.9791 326.0046 0014047 292.9025  67.0643 13.50979865 39705
QIANFAN-76              
1 63162U 25046D   25290.13507221  .00000075  00000+0  97328-4 0  9998
2 63162  88.9792 325.9860 0011606 294.1066  65.8871 13.50972105 39716
QIANFAN-77              
1 63163U 25046E   25290.13514244  .00000347  00000+0  24305-3 0  9998
2 63163  88.9787 324.4578 0012610 254.3154 105.6632 13.96072150 40556
QIANFAN-78              
1 63164U 25046F   25290.17624450  .00000153  00000+0  21819-3 0  9996
2 63164  88.9791 325.8462 0013022 296.2920  63.6893 13.50972554 39796
QIANFAN-79              
1 63165U 25046G   25290.20492566  .00000165  00000+0  23653-3 0  9993
2 63165  88.9794 325.9487 0012697 294.2531  65.7293 13.50971737 39745
QIANFAN-80              
1 63166U 25046H   25290.14743314  .00000178  00000+0  25729-3 0  9997
2 63166  88.9792 325.6629 0011719 299.8609  60.1377 13.50972508 39895
